{"fetched_at":"2026-07-14T17:40:46.625Z","source":"https://celestrak.org/NORAD/elements/gp.php?NAME=HAWK&FORMAT=JSON","constellation":"hawkeye-360","records":[{"OBJECT_NAME":"HAWK-A","OBJECT_ID":"2018-099H","EPOCH":"2026-07-14T02:57:00.180000","CLASSIFICATION_TYPE":"U","MEAN_MOTION":15.24956378,"ECCENTRICITY":0.0034581,"INCLINATION":97.39,"RA_OF_ASC_NODE":247.0105,"ARG_OF_PERICENTER":187.7545,"MEAN_ANOMALY":172.3163,"EPHEMERIS_TYPE":0,"NORAD_CAT_ID":43765,"ELEMENT_SET_NO":999,"REV_AT_EPOCH":41720,"BSTAR":0.00016205,"MEAN_MOTION_DOT":0.00004032,"MEAN_MOTION_DDOT":0},{"OBJECT_NAME":"HAWK-B","OBJECT_ID":"2018-099AN","EPOCH":"2026-07-14T02:39:58.286592","CLASSIFICATION_TYPE":"U","MEAN_MOTION":15.23107688,"ECCENTRICITY":0.0031246,"INCLINATION":97.395,"RA_OF_ASC_NODE":246.357,"ARG_OF_PERICENTER":205.9479,"MEAN_ANOMALY":154.0193,"EPHEMERIS_TYPE":0,"NORAD_CAT_ID":43794,"ELEMENT_SET_NO":999,"REV_AT_EPOCH":41713,"BSTAR":0.00015202,"MEAN_MOTION_DOT":0.00003561,"MEAN_MOTION_DDOT":0},{"OBJECT_NAME":"HAWK-C","OBJECT_ID":"2018-099AT","EPOCH":"2026-07-14T04:03:15.870816","CLASSIFICATION_TYPE":"U","MEAN_MOTION":15.28480719,"ECCENTRICITY":0.0040189,"INCLINATION":97.3877,"RA_OF_ASC_NODE":248.1022,"ARG_OF_PERICENTER":187.3959,"MEAN_ANOMALY":172.6693,"EPHEMERIS_TYPE":0,"NORAD_CAT_ID":43799,"ELEMENT_SET_NO":999,"REV_AT_EPOCH":41803,"BSTAR":0.00018131,"MEAN_MOTION_DOT":0.00005068,"MEAN_MOTION_DDOT":0},{"OBJECT_NAME":"HAWK-2C","OBJECT_ID":"2021-006CT","EPOCH":"2026-07-14T01:52:52.501152","CLASSIFICATION_TYPE":"U","MEAN_MOTION":15.34980823,"ECCENTRICITY":0.0008632,"INCLINATION":97.2267,"RA_OF_ASC_NODE":238.8548,"ARG_OF_PERICENTER":103.9548,"MEAN_ANOMALY":256.2656,"EPHEMERIS_TYPE":0,"NORAD_CAT_ID":47502,"ELEMENT_SET_NO":999,"REV_AT_EPOCH":30362,"BSTAR":0.00012214,"MEAN_MOTION_DOT":0.0000407,"MEAN_MOTION_DDOT":0},{"OBJECT_NAME":"HAWK-2A","OBJECT_ID":"2021-006CW","EPOCH":"2026-07-14T03:29:57.971040","CLASSIFICATION_TYPE":"U","MEAN_MOTION":15.34995713,"ECCENTRICITY":0.0008169,"INCLINATION":97.2309,"RA_OF_ASC_NODE":239.6145,"ARG_OF_PERICENTER":107.1081,"MEAN_ANOMALY":253.1058,"EPHEMERIS_TYPE":0,"NORAD_CAT_ID":47505,"ELEMENT_SET_NO":999,"REV_AT_EPOCH":30363,"BSTAR":0.00011584,"MEAN_MOTION_DOT":0.00003857,"MEAN_MOTION_DDOT":0},{"OBJECT_NAME":"HAWK-2B","OBJECT_ID":"2021-006CZ","EPOCH":"2026-07-14T01:46:54.151968","CLASSIFICATION_TYPE":"U","MEAN_MOTION":15.35126075,"ECCENTRICITY":0.0008704,"INCLINATION":97.2177,"RA_OF_ASC_NODE":237.8339,"ARG_OF_PERICENTER":105.8558,"MEAN_ANOMALY":254.3646,"EPHEMERIS_TYPE":0,"NORAD_CAT_ID":47508,"ELEMENT_SET_NO":999,"REV_AT_EPOCH":30362,"BSTAR":0.00013513,"MEAN_MOTION_DOT":0.00004533,"MEAN_MOTION_DDOT":0},{"OBJECT_NAME":"HAWK-3B","OBJECT_ID":"2021-059BE","EPOCH":"2026-07-14T01:57:32.361120","CLASSIFICATION_TYPE":"U","MEAN_MOTION":15.7179457,"ECCENTRICITY":0.000436,"INCLINATION":97.6628,"RA_OF_ASC_NODE":34.3783,"ARG_OF_PERICENTER":202.0717,"MEAN_ANOMALY":158.0358,"EPHEMERIS_TYPE":0,"NORAD_CAT_ID":48931,"ELEMENT_SET_NO":999,"REV_AT_EPOCH":28207,"BSTAR":0.00023901,"MEAN_MOTION_DOT":0.00030845,"MEAN_MOTION_DDOT":0},{"OBJECT_NAME":"HAWK-3C","OBJECT_ID":"2021-059BX","EPOCH":"2026-07-14T03:28:45.579936","CLASSIFICATION_TYPE":"U","MEAN_MOTION":15.71802562,"ECCENTRICITY":0.0004667,"INCLINATION":97.6749,"RA_OF_ASC_NODE":40.1797,"ARG_OF_PERICENTER":202.8329,"MEAN_ANOMALY":157.2727,"EPHEMERIS_TYPE":0,"NORAD_CAT_ID":48948,"ELEMENT_SET_NO":999,"REV_AT_EPOCH":28208,"BSTAR":0.0002252,"MEAN_MOTION_DOT":0.0002906,"MEAN_MOTION_DDOT":0},{"OBJECT_NAME":"HAWK-3A","OBJECT_ID":"2021-059CG","EPOCH":"2026-07-14T01:56:55.389696","CLASSIFICATION_TYPE":"U","MEAN_MOTION":15.71797253,"ECCENTRICITY":0.0004511,"INCLINATION":97.6692,"RA_OF_ASC_NODE":37.2932,"ARG_OF_PERICENTER":205.2033,"MEAN_ANOMALY":154.901,"EPHEMERIS_TYPE":0,"NORAD_CAT_ID":48957,"ELEMENT_SET_NO":999,"REV_AT_EPOCH":28207,"BSTAR":0.0002257,"MEAN_MOTION_DOT":0.00029118,"MEAN_MOTION_DDOT":0},{"OBJECT_NAME":"HAWK-5C","OBJECT_ID":"2022-057Y","EPOCH":"2026-07-14T04:34:24.283776","CLASSIFICATION_TYPE":"U","MEAN_MOTION":15.52302528,"ECCENTRICITY":0.0002877,"INCLINATION":97.6608,"RA_OF_ASC_NODE":356.6217,"ARG_OF_PERICENTER":351.0827,"MEAN_ANOMALY":9.0373,"EPHEMERIS_TYPE":0,"NORAD_CAT_ID":52754,"ELEMENT_SET_NO":999,"REV_AT_EPOCH":23053,"BSTAR":0.00019063,"MEAN_MOTION_DOT":0.00011491,"MEAN_MOTION_DDOT":0},{"OBJECT_NAME":"HAWK-5B","OBJECT_ID":"2022-057AA","EPOCH":"2026-07-14T04:34:08.229792","CLASSIFICATION_TYPE":"U","MEAN_MOTION":15.52299787,"ECCENTRICITY":0.000355,"INCLINATION":97.6623,"RA_OF_ASC_NODE":354.9748,"ARG_OF_PERICENTER":336.6567,"MEAN_ANOMALY":23.4523,"EPHEMERIS_TYPE":0,"NORAD_CAT_ID":52756,"ELEMENT_SET_NO":999,"REV_AT_EPOCH":23053,"BSTAR":0.00018587,"MEAN_MOTION_DOT":0.00011201,"MEAN_MOTION_DDOT":0},{"OBJECT_NAME":"HAWK-5A","OBJECT_ID":"2022-057AB","EPOCH":"2026-07-14T04:33:51.302304","CLASSIFICATION_TYPE":"U","MEAN_MOTION":15.52300657,"ECCENTRICITY":0.0003423,"INCLINATION":97.6617,"RA_OF_ASC_NODE":355.8051,"ARG_OF_PERICENTER":342.5028,"MEAN_ANOMALY":17.6106,"EPHEMERIS_TYPE":0,"NORAD_CAT_ID":52757,"ELEMENT_SET_NO":999,"REV_AT_EPOCH":23053,"BSTAR":0.00018692,"MEAN_MOTION_DOT":0.00011265,"MEAN_MOTION_DDOT":0},{"OBJECT_NAME":"HAWK-6B","OBJECT_ID":"2023-011A","EPOCH":"2026-07-13T09:52:42.695328","CLASSIFICATION_TYPE":"U","MEAN_MOTION":15.23143561,"ECCENTRICITY":0.00039431,"INCLINATION":40.4967,"RA_OF_ASC_NODE":199.0865,"ARG_OF_PERICENTER":231.0284,"MEAN_ANOMALY":129.0174,"EPHEMERIS_TYPE":0,"NORAD_CAT_ID":55324,"ELEMENT_SET_NO":999,"REV_AT_EPOCH":19184,"BSTAR":0.00011056983,"MEAN_MOTION_DOT":0.00002471,"MEAN_MOTION_DDOT":0},{"OBJECT_NAME":"HAWK-6C","OBJECT_ID":"2023-011C","EPOCH":"2026-07-13T09:51:48.372192","CLASSIFICATION_TYPE":"U","MEAN_MOTION":15.23146024,"ECCENTRICITY":0.00044448,"INCLINATION":40.4959,"RA_OF_ASC_NODE":195.9257,"ARG_OF_PERICENTER":223.1928,"MEAN_ANOMALY":136.8534,"EPHEMERIS_TYPE":0,"NORAD_CAT_ID":55326,"ELEMENT_SET_NO":999,"REV_AT_EPOCH":19185,"BSTAR":0.00011621496,"MEAN_MOTION_DOT":0.00002607,"MEAN_MOTION_DDOT":0},{"OBJECT_NAME":"HAWK-6A","OBJECT_ID":"2023-011D","EPOCH":"2026-07-13T09:51:51.524928","CLASSIFICATION_TYPE":"U","MEAN_MOTION":15.23145096,"ECCENTRICITY":0.00039669,"INCLINATION":40.4967,"RA_OF_ASC_NODE":197.5527,"ARG_OF_PERICENTER":220.6915,"MEAN_ANOMALY":139.3598,"EPHEMERIS_TYPE":0,"NORAD_CAT_ID":55327,"ELEMENT_SET_NO":999,"REV_AT_EPOCH":19185,"BSTAR":0.0001163441,"MEAN_MOTION_DOT":0.0000261,"MEAN_MOTION_DDOT":0},{"OBJECT_NAME":"HAWK-7A","OBJECT_ID":"2023-054P","EPOCH":"2026-07-14T03:58:19.920576","CLASSIFICATION_TYPE":"U","MEAN_MOTION":15.27626189,"ECCENTRICITY":0.0001509,"INCLINATION":97.2666,"RA_OF_ASC_NODE":81.8169,"ARG_OF_PERICENTER":339.6555,"MEAN_ANOMALY":20.4624,"EPHEMERIS_TYPE":0,"NORAD_CAT_ID":56191,"ELEMENT_SET_NO":999,"REV_AT_EPOCH":18114,"BSTAR":0.00012263,"MEAN_MOTION_DOT":0.0000324,"MEAN_MOTION_DDOT":0}]}
